[{"OBJECT_NAME":"SL-14 R/B","OBJECT_ID":"1986-006B","EPOCH":"2026-03-28T11:58:13.988064","MEAN_MOTION":14.86844334,"ECCENTRICITY":0.007578,"INCLINATION":82.5251,"RA_OF_ASC_NODE":242.0304,"ARG_OF_PERICENTER":209.4024,"MEAN_ANOMALY":150.2921,"EPHEMERIS_TYPE":0,"CLASSIFICATION_TYPE":"U","NORAD_CAT_ID":16496,"ELEMENT_SET_NO":999,"REV_AT_EPOCH":15200,"BSTAR":0.00010350131,"MEAN_MOTION_DOT":9.99e-6,"MEAN_MOTION_DDOT":0},{"OBJECT_NAME":"COSMOS 1743","OBJECT_ID":"1986-034A","EPOCH":"2026-03-28T09:08:40.779456","MEAN_MOTION":15.60074794,"ECCENTRICITY":0.00041837,"INCLINATION":82.53,"RA_OF_ASC_NODE":54.19,"ARG_OF_PERICENTER":172.5295,"MEAN_ANOMALY":187.6025,"EPHEMERIS_TYPE":0,"CLASSIFICATION_TYPE":"U","NORAD_CAT_ID":16719,"ELEMENT_SET_NO":999,"REV_AT_EPOCH":18316,"BSTAR":0.00061676295,"MEAN_MOTION_DOT":0.0005021,"MEAN_MOTION_DDOT":0},{"OBJECT_NAME":"SL-14 R/B","OBJECT_ID":"1986-046B","EPOCH":"2026-03-28T09:32:00.142368","MEAN_MOTION":14.85608172,"ECCENTRICITY":0.00235094,"INCLINATION":82.4802,"RA_OF_ASC_NODE":62.5007,"ARG_OF_PERICENTER":162.4824,"MEAN_ANOMALY":197.7209,"EPHEMERIS_TYPE":0,"CLASSIFICATION_TYPE":"U","NORAD_CAT_ID":16792,"ELEMENT_SET_NO":999,"REV_AT_EPOCH":12918,"BSTAR":6.0589533e-5,"MEAN_MOTION_DOT":5.51e-6,"MEAN_MOTION_DDOT":0},{"OBJECT_NAME":"SL-14 R/B","OBJECT_ID":"1986-055B","EPOCH":"2026-03-28T12:53:14.220960","MEAN_MOTION":14.85658913,"ECCENTRICITY":0.00173012,"INCLINATION":82.5171,"RA_OF_ASC_NODE":108.9546,"ARG_OF_PERICENTER":269.837,"MEAN_ANOMALY":205.7521,"EPHEMERIS_TYPE":0,"CLASSIFICATION_TYPE":"U","NORAD_CAT_ID":16882,"ELEMENT_SET_NO":999,"REV_AT_EPOCH":12216,"BSTAR":5.0445557e-5,"MEAN_MOTION_DOT":4.62e-6,"MEAN_MOTION_DDOT":0},{"OBJECT_NAME":"AJISAI (EGS)","OBJECT_ID":"1986-061A","EPOCH":"2026-03-28T14:38:56.172768","MEAN_MOTION":12.44515628,"ECCENTRICITY":0.00113315,"INCLINATION":50.0112,"RA_OF_ASC_NODE":35.1652,"ARG_OF_PERICENTER":335.7889,"MEAN_ANOMALY":195.5275,"EPHEMERIS_TYPE":0,"CLASSIFICATION_TYPE":"U","NORAD_CAT_ID":16908,"ELEMENT_SET_NO":999,"REV_AT_EPOCH":47035,"BSTAR":-1.1735866e-5,"MEAN_MOTION_DOT":-9.9e-7,"MEAN_MOTION_DDOT":0},{"OBJECT_NAME":"SL-14 R/B","OBJECT_ID":"1987-024B","EPOCH":"2026-03-28T10:10:16.604256","MEAN_MOTION":14.86149648,"ECCENTRICITY":0.00177756,"INCLINATION":82.5252,"RA_OF_ASC_NODE":75.1502,"ARG_OF_PERICENTER":193.8891,"MEAN_ANOMALY":166.184,"EPHEMERIS_TYPE":0,"CLASSIFICATION_TYPE":"U","NORAD_CAT_ID":17567,"ELEMENT_SET_NO":999,"REV_AT_EPOCH":9091,"BSTAR":5.8160323e-5,"MEAN_MOTION_DOT":5.36e-6,"MEAN_MOTION_DDOT":0},{"OBJECT_NAME":"COSMOS 1833","OBJECT_ID":"1987-027A","EPOCH":"2026-03-28T13:10:15.016224","MEAN_MOTION":14.13047617,"ECCENTRICITY":0.00232892,"INCLINATION":70.9171,"RA_OF_ASC_NODE":286.3795,"ARG_OF_PERICENTER":186.7866,"MEAN_ANOMALY":173.2944,"EPHEMERIS_TYPE":0,"CLASSIFICATION_TYPE":"U","NORAD_CAT_ID":17589,"ELEMENT_SET_NO":999,"REV_AT_EPOCH":1298,"BSTAR":-0.00012329056,"MEAN_MOTION_DOT":-2.79e-6,"MEAN_MOTION_DDOT":0},{"OBJECT_NAME":"SL-16 R/B","OBJECT_ID":"1987-027B","EPOCH":"2026-03-28T14:36:50.344992","MEAN_MOTION":14.17165592,"ECCENTRICITY":0.00028607,"INCLINATION":71.0014,"RA_OF_ASC_NODE":236.6234,"ARG_OF_PERICENTER":96.4087,"MEAN_ANOMALY":263.7363,"EPHEMERIS_TYPE":0,"CLASSIFICATION_TYPE":"U","NORAD_CAT_ID":17590,"ELEMENT_SET_NO":999,"REV_AT_EPOCH":1802,"BSTAR":9.25687e-7,"MEAN_MOTION_DOT":-4.6e-7,"MEAN_MOTION_DDOT":0},{"OBJECT_NAME":"SL-14 R/B","OBJECT_ID":"1987-038B","EPOCH":"2026-03-28T13:30:53.773632","MEAN_MOTION":14.85385999,"ECCENTRICITY":0.00207461,"INCLINATION":82.4977,"RA_OF_ASC_NODE":279.023,"ARG_OF_PERICENTER":101.46,"MEAN_ANOMALY":258.8947,"EPHEMERIS_TYPE":0,"CLASSIFICATION_TYPE":"U","NORAD_CAT_ID":17912,"ELEMENT_SET_NO":999,"REV_AT_EPOCH":8203,"BSTAR":5.5608171e-5,"MEAN_MOTION_DOT":5.05e-6,"MEAN_MOTION_DDOT":0},{"OBJECT_NAME":"COSMOS 1844","OBJECT_ID":"1987-041A","EPOCH":"2026-03-28T11:50:10.579200","MEAN_MOTION":14.14556294,"ECCENTRICITY":0.0031021,"INCLINATION":70.9014,"RA_OF_ASC_NODE":354.5158,"ARG_OF_PERICENTER":350.432,"MEAN_ANOMALY":9.6206,"EPHEMERIS_TYPE":0,"CLASSIFICATION_TYPE":"U","NORAD_CAT_ID":17973,"ELEMENT_SET_NO":999,"REV_AT_EPOCH":624,"BSTAR":0.00021722905,"MEAN_MOTION_DOT":3.71e-6,"MEAN_MOTION_DDOT":0},{"OBJECT_NAME":"SL-14 R/B","OBJECT_ID":"1987-055B","EPOCH":"2026-03-28T03:10:51.357504","MEAN_MOTION":14.85647373,"ECCENTRICITY":0.00195675,"INCLINATION":82.5008,"RA_OF_ASC_NODE":331.6523,"ARG_OF_PERICENTER":315.904,"MEAN_ANOMALY":44.0615,"EPHEMERIS_TYPE":0,"CLASSIFICATION_TYPE":"U","NORAD_CAT_ID":18153,"ELEMENT_SET_NO":999,"REV_AT_EPOCH":7267,"BSTAR":4.4588915e-5,"MEAN_MOTION_DOT":4.11e-6,"MEAN_MOTION_DDOT":0},{"OBJECT_NAME":"COSMOS 1867","OBJECT_ID":"1987-060A","EPOCH":"2026-03-28T13:59:58.552512","MEAN_MOTION":14.31505882,"ECCENTRICITY":0.00148116,"INCLINATION":65.0093,"RA_OF_ASC_NODE":253.7909,"ARG_OF_PERICENTER":279.7247,"MEAN_ANOMALY":80.2164,"EPHEMERIS_TYPE":0,"CLASSIFICATION_TYPE":"U","NORAD_CAT_ID":18187,"ELEMENT_SET_NO":999,"REV_AT_EPOCH":2264,"BSTAR":3.2059405e-5,"MEAN_MOTION_DOT":-1.5e-7,"MEAN_MOTION_DDOT":0},{"OBJECT_NAME":"SL-14 R/B","OBJECT_ID":"1988-001B","EPOCH":"2026-03-28T14:24:58.460832","MEAN_MOTION":14.85548262,"ECCENTRICITY":0.00183194,"INCLINATION":82.5162,"RA_OF_ASC_NODE":177.5795,"ARG_OF_PERICENTER":171.2143,"MEAN_ANOMALY":188.9397,"EPHEMERIS_TYPE":0,"CLASSIFICATION_TYPE":"U","NORAD_CAT_ID":18749,"ELEMENT_SET_NO":999,"REV_AT_EPOCH":4483,"BSTAR":5.5487015e-5,"MEAN_MOTION_DOT":5.05e-6,"MEAN_MOTION_DDOT":0},{"OBJECT_NAME":"COSMOS 1933","OBJECT_ID":"1988-020A","EPOCH":"2026-03-28T10:39:27.938304","MEAN_MOTION":15.18157158,"ECCENTRICITY":0.00051694,"INCLINATION":82.5121,"RA_OF_ASC_NODE":232.3517,"ARG_OF_PERICENTER":126.0859,"MEAN_ANOMALY":234.0854,"EPHEMERIS_TYPE":0,"CLASSIFICATION_TYPE":"U","NORAD_CAT_ID":18958,"ELEMENT_SET_NO":999,"REV_AT_EPOCH":5307,"BSTAR":0.00022928664,"MEAN_MOTION_DOT":4.713e-5,"MEAN_MOTION_DDOT":0},{"OBJECT_NAME":"SL-3 R/B","OBJECT_ID":"1988-032B","EPOCH":"2026-03-28T15:01:30.753696","MEAN_MOTION":15.20113038,"ECCENTRICITY":0.00263233,"INCLINATION":97.521,"RA_OF_ASC_NODE":70.8157,"ARG_OF_PERICENTER":163.9982,"MEAN_ANOMALY":196.209,"EPHEMERIS_TYPE":0,"CLASSIFICATION_TYPE":"U","NORAD_CAT_ID":19046,"ELEMENT_SET_NO":999,"REV_AT_EPOCH":5498,"BSTAR":0.00028186545,"MEAN_MOTION_DOT":6.076e-5,"MEAN_MOTION_DDOT":0},{"OBJECT_NAME":"SL-16 R/B","OBJECT_ID":"1988-039B","EPOCH":"2026-03-28T13:58:42.144672","MEAN_MOTION":14.19618953,"ECCENTRICITY":0.00236427,"INCLINATION":71.0167,"RA_OF_ASC_NODE":28.5975,"ARG_OF_PERICENTER":307.3011,"MEAN_ANOMALY":52.5959,"EPHEMERIS_TYPE":0,"CLASSIFICATION_TYPE":"U","NORAD_CAT_ID":19120,"ELEMENT_SET_NO":999,"REV_AT_EPOCH":96106,"BSTAR":0.00010641478,"MEAN_MOTION_DOT":1.77e-6,"MEAN_MOTION_DDOT":0},{"OBJECT_NAME":"COSMOS 1953","OBJECT_ID":"1988-050A","EPOCH":"2026-03-28T14:36:13.835808","MEAN_MOTION":15.28813356,"ECCENTRICITY":0.0012367,"INCLINATION":82.5084,"RA_OF_ASC_NODE":139.2165,"ARG_OF_PERICENTER":63.6214,"MEAN_ANOMALY":296.6293,"EPHEMERIS_TYPE":0,"CLASSIFICATION_TYPE":"U","NORAD_CAT_ID":19210,"ELEMENT_SET_NO":999,"REV_AT_EPOCH":4067,"BSTAR":0.00026638509,"MEAN_MOTION_DOT":7.507e-5,"MEAN_MOTION_DDOT":0}]
